NORAD_CAT_ID,OBJECT_NAME,OBJECT_TYPE,EPOCH,MEAN_MOTION,ECCENTRICITY,INCLINATION,RA_OF_ASC_NODE,ARG_OF_PERICENTER,MEAN_ANOMALY,BSTAR,MEAN_MOTION_DOT,MEAN_MOTION_DDOT,TLE_LINE0,TLE_LINE1,TLE_LINE2,SEMIMAJOR_AXIS,PERIOD,APOGEE,PERIGEE,DECAYED
51114.0,STARLINK-3375,PAYLOAD,2022-04-19 14:00:01,15.48851148,0.0002044,53.2175,188.3965,39.4604,313.6541,-0.0065128,-0.00341757,0.0,0 STARLINK-3375,1 51114U 22005L   22109.58334491 -.00341757  00000-0 -65128-2 0  9995,2 51114  53.2175 188.3965 0002044  39.4604 313.6541 15.48851148 15546,6798.223000000001,92.972,421.477,418.698,0.0
51114.0,STARLINK-3375,PAYLOAD,2022-04-19 22:00:00,15.48832782,0.000177,53.2174,186.8082,35.7665,16.8196,-0.012989,-0.00654275,0.0,0 STARLINK-3375,1 51114U 22005L   22109.91667824 -.00654275  00000-0 -12989-1 0  9999,2 51114  53.2174 186.8082 0001770  35.7665  16.8196 15.48832782 15595,6798.276,92.973,421.345,418.93800000000016,0.0
51114.0,STARLINK-3375,PAYLOAD,2022-04-20 14:00:01,15.47909841,0.0002145,53.2174,183.6315,28.3659,142.3952,-0.013076,-0.0063893,0.0,0 STARLINK-3375,1 51114U 22005L   22110.58334491 -.00638930  00000-0 -13076-1 0  9993,2 51114  53.2174 183.6315 0002145  28.3659 142.3952 15.47909841  3690,6800.978,93.029,424.302,421.385,0.0
51114.0,STARLINK-3375,PAYLOAD,2022-04-20 22:00:00,15.47457406,0.0001708,53.2175,182.0423,41.1434,187.8811,-0.01341,-0.0064441999999999,0.0,0 STARLINK-3375,1 51114U 22005L   22110.91667824 -.00644420  00000-0 -13410-1 0  9992,2 51114  53.2175 182.0423 0001708  41.1434 187.8811 15.47457406  3673,6802.304,93.056,425.331,423.007,0.0
51114.0,STARLINK-3375,PAYLOAD,2022-04-21 06:00:00,15.47000315,0.0001896,53.2176,180.4555,32.7319,254.009,-0.013553,-0.00641275,0.0,0 STARLINK-3375,1 51114U 22005L   22111.25001157 -.00641275  00000-0 -13553-1 0  9994,2 51114  53.2176 180.4555 0001896  32.7319 254.0090 15.47000315 15805,6803.644,93.083,426.799,424.219,0.0
51114.0,STARLINK-3375,PAYLOAD,2022-04-21 14:00:01,15.46544159,0.0001691,53.2176,178.8721,36.0993,307.8091,-0.0137759999999999,-0.0064151,0.0,0 STARLINK-3375,1 51114U 22005L   22111.58334491 -.00641510  00000-0 -13776-1 0  9999,2 51114  53.2176 178.8721 0001691  36.0993 307.8091 15.46544159  3699,6804.982,93.111,427.997,425.696,0.0
51114.0,STARLINK-3375,PAYLOAD,2022-04-21 22:00:00,15.46088333,0.0001466,53.2176,177.2861,41.4066,359.1236,-0.013991,-0.00641288,0.0,0 STARLINK-3375,1 51114U 22005L   22111.91667824 -.00641288  00000-0 -13991-1 0  9996,2 51114  53.2176 177.2861 0001466  41.4066 359.1236 15.46088333  3685,6806.319,93.138,429.182,427.186,0.0
51114.0,STARLINK-3375,PAYLOAD,2022-04-22 14:00:01,15.45173436,0.0001979,53.2176,174.1223,32.3517,119.7774,-0.014295,-0.00635422,0.0,0 STARLINK-3375,1 51114U 22005L   22112.58334491 -.00635422  00000-0 -14295-1 0  9992,2 51114  53.2176 174.1223 0001979  32.3517 119.7774 15.45173436 16018,6809.005999999999,93.193,432.218,429.523,0.0
51114.0,STARLINK-3375,PAYLOAD,2022-04-23 14:00:01,15.43733226,0.0001589,53.2175,169.3814,48.6487,266.8104,-0.012547,-0.00537648,0.0,0 STARLINK-3375,1 51114U 22005L   22113.58334491 -.00537648  00000-0 -12547-1 0  9992,2 51114  53.2175 169.3814 0001589  48.6487 266.8104 15.43733226 16166,6813.24,93.28,436.187,434.022,0.0
51114.0,STARLINK-3375,PAYLOAD,2022-04-23 22:00:00,15.43353657,0.0001436,53.2175,167.8028,43.0772,325.678,-0.015344,-0.00640419,0.0,0 STARLINK-3375,1 51114U 22005L   22113.91667824 -.00640419  00000-0 -15344-1 0  9997,2 51114  53.2175 167.8028 0001436  43.0772 325.6780 15.43353657 16219,6814.357,93.303,437.2,435.24300000000005,0.0
51114.0,STARLINK-3375,PAYLOAD,2022-04-24 14:00:01,15.42438076,0.0001613,53.2173,164.6524,41.0485,72.7345,-0.015638,-0.00633378,0.0,0 STARLINK-3375,1 51114U 22005L   22114.58334491 -.00633378  00000-0 -15638-1 0  9994,2 51114  53.2173 164.6524 0001613  41.0485  72.7345 15.42438076  3681,6817.053000000001,93.359,440.018,437.819,0.0
51114.0,STARLINK-3375,PAYLOAD,2022-04-24 22:00:00,15.41898418,0.0001781999999999,53.2174,163.0751,32.3726,133.1477,-0.012879,-0.00519908,0.0,0 STARLINK-3375,1 51114U 22005L   22114.91667824 -.00519908  00000-0 -12879-1 0  9996,2 51114  53.2174 163.0751 0001782  32.3726 133.1477 15.41898418 16372,6818.644,93.391,441.724,439.294,0.0
51114.0,STARLINK-3375,PAYLOAD,2022-04-25 06:00:00,15.41530099,0.0001871,53.2175,161.503,37.968,178.6516,-0.016271,-0.00646296,0.0,0 STARLINK-3375,1 51114U 22005L   22115.25001157 -.00646296  00000-0 -16271-1 0  9996,2 51114  53.2175 161.5030 0001871  37.9680 178.6516 15.41530099 16427,6819.73,93.414,442.871,440.319,0.0
51114.0,STARLINK-3375,PAYLOAD,2022-04-25 14:00:01,15.41071809,0.0001599,53.2173,159.93200000000004,46.4742,220.7425,-0.01639,-0.00634005,0.0,0 STARLINK-3375,1 51114U 22005L   22115.58334491 -.00634005  00000-0 -16390-1 0  9999,2 51114  53.2173 159.9320 0001599  46.4742 220.7425 15.41071809  3691,6821.081999999999,93.441,444.037,441.856,0.0
51114.0,STARLINK-3375,PAYLOAD,2022-04-25 22:00:00,15.40618069,0.000148,53.2175,158.3589,45.0658,272.201,-0.016748,-0.00645299,0.0,0 STARLINK-3375,1 51114U 22005L   22115.91667824 -.00645299  00000-0 -16748-1 0  9999,2 51114  53.2175 158.3589 0001480  45.0658 272.2010 15.40618069  3688,6822.420999999999,93.469,445.296,443.276,0.0
51114.0,STARLINK-3375,PAYLOAD,2022-04-26 14:00:01,15.39705982,0.0001615,53.2173,155.2215,37.5899,18.1963,-0.017218,-0.0064375,0.0,0 STARLINK-3375,1 51114U 22005L   22116.58335648 -.00643750  00000-0 -17218-1 0  9992,2 51114  53.2173 155.2215 0001615  37.5899  18.1963 15.39705982 16622,6825.115,93.524,448.082,445.878,0.0
51114.0,STARLINK-3375,PAYLOAD,2022-04-26 22:00:00,15.39250471,0.00016,53.2175,153.6516,40.1414,63.9886,-0.0175,-0.00644464,0.0,0 STARLINK-3375,1 51114U 22005L   22116.91667824 -.00644464  00000-0 -17500-1 0  9990,2 51114  53.2175 153.6516 0001600  40.1414  63.9886 15.39250471  3645,6826.4609999999975,93.552,449.419,447.234,0.0
51114.0,STARLINK-3375,PAYLOAD,2022-04-27 14:00:01,15.38221684,0.0001715,53.2172,150.5195,36.2033,163.2268,-0.013524,-0.00485454,0.0,0 STARLINK-3375,1 51114U 22005L   22117.58335648 -.00485454  00000-0 -13524-1 0  9994,2 51114  53.2172 150.5195 0001715  36.2033 163.2268 15.38221684 16781,6829.505,93.615,452.541,450.199,0.0
51114.0,STARLINK-3375,PAYLOAD,2022-04-27 22:00:00,15.37882953,0.0001705,53.2175,148.9538,41.6752,204.3895,-0.018269,-0.00643327,0.0,0 STARLINK-3375,1 51114U 22005L   22117.91667824 -.00643327  00000-0 -18269-1 0  9991,2 51114  53.2175 148.9538 0001705  41.6752 204.3895 15.37882953 16833,6830.5080000000025,93.635,453.537,451.208,0.0
51114.0,STARLINK-3375,PAYLOAD,2022-04-28 14:00:01,15.36973296,0.0001563,53.2174,145.8293,41.596,296.3518,-0.018893,-0.00645673,0.0,0 STARLINK-3375,1 51114U 22005L   22118.58334491 -.00645673  00000-0 -18893-1 0  9995,2 51114  53.2174 145.8293 0001563  41.5960 296.3518 15.36973296  3680,6833.203,93.691,456.136,454.0,0.0
51114.0,STARLINK-3375,PAYLOAD,2022-04-28 20:00:01,15.36632075,0.0001685,53.2177,144.6566,40.9464,240.8946,-0.01916,-0.00647469,0.0,0 STARLINK-3375,1 51114U 22005L   22118.83334491 -.00647469  00000-0 -19160-1 0  9996,2 51114  53.2177 144.6566 0001685  40.9464 240.8946 15.36632075 16972,6834.214,93.711,457.231,454.92800000000005,0.0
51114.0,STARLINK-3375,PAYLOAD,2022-04-29 14:00:01,15.35605373,0.000168,53.2172,141.148,40.2385,71.4304,-0.019714,-0.0064465,0.0,0 STARLINK-3375,1 51114U 22005L   22119.58334491 -.00644650  00000-0 -19714-1 0  9993,2 51114  53.2172 141.1480 0001680  40.2385  71.4304 15.35605373  3684,6837.26,93.774,460.274,457.976,0.0
51114.0,STARLINK-3375,PAYLOAD,2022-04-29 22:00:00,15.35149783,0.0001856,53.2173,139.588,36.4241,118.7244,-0.020036,-0.00645601,0.0,0 STARLINK-3375,1 51114U 22005L   22119.91667824 -.00645601  00000-0 -20036-1 0  9995,2 51114  53.2173 139.5880 0001856  36.4241 118.7244 15.35149783 17145,6838.613,93.802,461.747,459.208,0.0
51114.0,STARLINK-3375,PAYLOAD,2022-04-30 14:00:01,15.34240002,0.0001735,53.2171,136.4762,43.0385,197.4222,-0.020717,-0.00648172,0.0,0 STARLINK-3375,1 51114U 22005L   22120.58334491 -.00648172  00000-0 -20717-1 0  9993,2 51114  53.2171 136.4762 0001735  43.0385 197.4222 15.34240002  3642,6841.316,93.858,464.36800000000005,461.994,0.0
51114.0,STARLINK-3375,PAYLOAD,2022-04-30 22:00:00,15.33683542,0.0001937,53.2171,134.9184,36.5737,245.7756,-0.016274,-0.00503407,0.0,0 STARLINK-3375,1 51114U 22005L   22120.91667824 -.00503407  00000-0 -16274-1 0  9993,2 51114  53.2171 134.9184 0001937  36.5737 245.7756 15.33683542  3621,6842.971,93.892,466.161,463.51,0.0
51114.0,STARLINK-3375,PAYLOAD,2022-05-01 06:00:00,15.33326789,0.0001917,53.2174,133.3669,32.8421,290.743,-0.021217,-0.00645045,0.0,0 STARLINK-3375,1 51114U 22005L   22121.25001157 -.00645045  00000-0 -21217-1 0  9990,2 51114  53.2174 133.3669 0001917  32.8421 290.7430 15.33326789 17342,6844.031999999997,93.913,467.209,464.585,0.0
51114.0,STARLINK-3375,PAYLOAD,2022-05-01 14:00:01,15.32872636,0.0001501,53.2172,131.8143,43.7756,320.5490000000001,-0.021605,-0.0064723999999999,0.0,0 STARLINK-3375,1 51114U 22005L   22121.58334491 -.00647240  00000-0 -21605-1 0  9996,2 51114  53.2172 131.8143 0001501  43.7756 320.5490 15.32872636  3654,6845.384,93.941,468.276,466.221,0.0
51114.0,STARLINK-3375,PAYLOAD,2022-05-01 22:00:01,15.32413954,0.0001664,53.2173,130.2606,35.95,8.6337,-0.021779,-0.00643364,0.0,0 STARLINK-3375,1 51114U 22005L   22121.91668981 -.00643364  00000-0 -21779-1 0  9992,2 51114  53.2173 130.2606 0001664  35.9500   8.6337 15.32413954  3672,6846.75,93.969,469.754,467.475,0.0
51114.0,STARLINK-3375,PAYLOAD,2022-05-02 06:00:00,15.31859276,0.0001696,53.2172,128.7102,35.1916,49.0259,-0.017279,-0.00504444,0.0,0 STARLINK-3375,1 51114U 22005L   22122.25001157 -.00504444  00000-0 -17279-1 0  9991,2 51114  53.2172 128.7102 0001696  35.1916  49.0259 15.31859276 17499,6848.401999999999,94.003,471.429,469.106,0.0
